{"type": "FeatureCollection", "features": [{"type": "Feature", "properties": {"norad_id": 28054, "name": "DMSP 5D-3 F16 (USA 172)", "group": "weather", "lat": -18.06754181279748, "lon": -1.2353310109726783, "alt_km": 844.2668466086334, "timestamp": "2025-12-04T09:47:37.165691+00:00", "meta": {"OBJECT_NAME": "DMSP 5D-3 F16 (USA 172)", "OBJECT_ID": "2003-048A", "EPOCH": "2025-12-03T22:18:37.497888", "MEAN_MOTION": 14.14419405, "ECCENTRICITY": 0.00068672, "INCLINATION": 99.0052, "RA_OF_ASC_NODE": 355.3171, "ARG_OF_PERICENTER": 347.7086, "MEAN_ANOMALY": 79.1467, "EPHEMERIS_TYPE": 0, "CLASSIFICATION_TYPE": "U", "NORAD_CAT_ID": 28054, "ELEMENT_SET_NO": 999, "REV_AT_EPOCH": 14188, "BSTAR": 0.00016796968, "MEAN_MOTION_DOT": 2.76e-06, "MEAN_MOTION_DDOT": 0}, "tle": {"line1": "1 28054U 03048A   25337.92960067  .00000276  00000+0  16797-3 0  9990", "line2": "2 28054  99.0052 355.3171 0006867 347.7086  79.1467 14.14419405141882"}}, "geometry": {"type": "Point", "coordinates": [-1.2353310109726783, -18.06754181279748]}}, {"type": "Feature", "properties": {"norad_id": 28912, "name": "METEOSAT-9 (MSG-2)", "group": "weather", "lat": -4.462202133859626, "lon": -94.30295055651295, "alt_km": 35771.2293268369, "timestamp": "2025-12-04T09:47:37.165738+00:00", "meta": {"OBJECT_NAME": "METEOSAT-9 (MSG-2)", "OBJECT_ID": "2005-049B", "EPOCH": "2025-12-02T20:50:55.807872", "MEAN_MOTION": 1.00271253, "ECCENTRICITY": 0.00040042, "INCLINATION": 8.9157, "RA_OF_ASC_NODE": 56.0648, "ARG_OF_PERICENTER": 185.08, "MEAN_ANOMALY": 189.154, "EPHEMERIS_TYPE": 0, "CLASSIFICATION_TYPE": "U", "NORAD_CAT_ID": 28912, "ELEMENT_SET_NO": 999, "REV_AT_EPOCH": 503, "BSTAR": 0, "MEAN_MOTION_DOT": 1.39e-06, "MEAN_MOTION_DDOT": 0}, "tle": {"line1": "1 28912U 05049B   25336.86870148  .00000139  00000+0  00000+0 0  9992", "line2": "2 28912   8.9157  56.0648 0004004 185.0800 189.1540  1.00271253  5030"}}, "geometry": {"type": "Point", "coordinates": [-94.30295055651295, -4.462202133859626]}}, {"type": "Feature", "properties": {"norad_id": 29522, "name": "DMSP 5D-3 F17 (USA 191)", "group": "weather", "lat": -80.93385539763065, "lon": 89.39225491527814, "alt_km": 843.583493817684, "timestamp": "2025-12-04T09:47:37.165756+00:00", "meta": {"OBJECT_NAME": "DMSP 5D-3 F17 (USA 191)", "OBJECT_ID": "2006-050A", "EPOCH": "2025-12-03T22:20:57.653376", "MEAN_MOTION": 14.14913792, "ECCENTRICITY": 0.00091686, "INCLINATION": 98.7394, "RA_OF_ASC_NODE": 343.5037, "ARG_OF_PERICENTER": 252.4546, "MEAN_ANOMALY": 107.5626, "EPHEMERIS_TYPE": 0, "CLASSIFICATION_TYPE": "U", "NORAD_CAT_ID": 29522, "ELEMENT_SET_NO": 999, "REV_AT_EPOCH": 98480, "BSTAR": 0.00020634785, "MEAN_MOTION_DOT": 3.55e-06, "MEAN_MOTION_DDOT": 0}, "tle": {"line1": "1 29522U 06050A   25337.93122284  .00000355  00000+0  20635-3 0  9993", "line2": "2 29522  98.7394 343.5037 0009168 252.4546 107.5626 14.14913792984806"}}, "geometry": {"type": "Point", "coordinates": [89.39225491527814, -80.93385539763065]}}, {"type": "Feature", "properties": {"norad_id": 32958, "name": "FENGYUN 3A", "group": "weather", "lat": -23.71438516848966, "lon": 94.26825348346446, "alt_km": 836.488663678816, "timestamp": "2025-12-04T09:47:37.165769+00:00", "meta": {"OBJECT_NAME": "FENGYUN 3A", "OBJECT_ID": "2008-026A", "EPOCH": "2025-12-03T17:36:37.752192", "MEAN_MOTION": 14.19509764, "ECCENTRICITY": 0.00083403, "INCLINATION": 98.6682, "RA_OF_ASC_NODE": 277.4507, "ARG_OF_PERICENTER": 338.2034, "MEAN_ANOMALY": 21.8787, "EPHEMERIS_TYPE": 0, "CLASSIFICATION_TYPE": "U", "NORAD_CAT_ID": 32958, "ELEMENT_SET_NO": 999, "REV_AT_EPOCH": 90767, "BSTAR": 0.0001067732, "MEAN_MOTION_DOT": 1.82e-06, "MEAN_MOTION_DDOT": 0}, "tle": {"line1": "1 32958U 08026A   25337.73377028  .00000182  00000+0  10677-3 0  9994", "line2": "2 32958  98.6682 277.4507 0008340 338.2034  21.8787 14.19509764907676"}}, "geometry": {"type": "Point", "coordinates": [94.26825348346446, -23.71438516848966]}}, {"type": "Feature", "properties": {"norad_id": 35491, "name": "GOES 14", "group": "weather", "lat": 0.5392914414345535, "lon": 111.98966624617181, "alt_km": 35795.87289621167, "timestamp": "2025-12-04T09:47:37.165788+00:00", "meta": {"OBJECT_NAME": "GOES 14", "OBJECT_ID": "2009-033A", "EPOCH": "2025-12-04T01:13:34.696128", "MEAN_MOTION": 1.00272678, "ECCENTRICITY": 0.0004191, "INCLINATION": 1.175, "RA_OF_ASC_NODE": 85.5088, "ARG_OF_PERICENTER": 151.0612, "MEAN_ANOMALY": 106.6209, "EPHEMERIS_TYPE": 0, "CLASSIFICATION_TYPE": "U", "NORAD_CAT_ID": 35491, "ELEMENT_SET_NO": 999, "REV_AT_EPOCH": 463, "BSTAR": 0, "MEAN_MOTION_DOT": -5.2e-07, "MEAN_MOTION_DDOT": 0}, "tle": {"line1": "1 35491U 09033A   25338.05109602 -.00000052  00000+0  00000+0 0  9997", "line2": "2 35491   1.1750  85.5088 0004191 151.0612 106.6209  1.00272678  4633"}}, "geometry": {"type": "Point", "coordinates": [111.98966624617181, 0.5392914414345535]}}, {"type": "Feature", "properties": {"norad_id": 35951, "name": "DMSP 5D-3 F18 (USA 210)", "group": "weather", "lat": 39.82146280599504, "lon": 142.34301997180958, "alt_km": 834.9868144051597, "timestamp": "2025-12-04T09:47:37.165801+00:00", "meta": {"OBJECT_NAME": "DMSP 5D-3 F18 (USA 210)", "OBJECT_ID": "2009-057A", "EPOCH": "2025-12-03T21:15:22.332096", "MEAN_MOTION": 14.1476145, "ECCENTRICITY": 0.00121142, "INCLINATION": 98.8824, "RA_OF_ASC_NODE": 314.3312, "ARG_OF_PERICENTER": 85.7716, "MEAN_ANOMALY": 274.4841, "EPHEMERIS_TYPE": 0, "CLASSIFICATION_TYPE": "U", "NORAD_CAT_ID": 35951, "ELEMENT_SET_NO": 999, "REV_AT_EPOCH": 83197, "BSTAR": 0.00026770209, "MEAN_MOTION_DOT": 4.72e-06, "MEAN_MOTION_DDOT": 0}, "tle": {"line1": "1 35951U 09057A   25337.88567514  .00000472  00000+0  26770-3 0  9995", "line2": "2 35951  98.8824 314.3312 0012114  85.7716 274.4841 14.14761450831975"}}, "geometry": {"type": "Point", "coordinates": [142.34301997180958, 39.82146280599504]}}, {"type": "Feature", "properties": {"norad_id": 36411, "name": "EWS-G2 (GOES 15)", "group": "weather", "lat": -0.23439930885913451, "lon": -78.11648852052373, "alt_km": 35764.312852733456, "timestamp": "2025-12-04T09:47:37.165815+00:00", "meta": {"OBJECT_NAME": "EWS-G2 (GOES 15)", "OBJECT_ID": "2010-008A", "EPOCH": "2025-12-04T02:02:00.056832", "MEAN_MOTION": 1.00267832, "ECCENTRICITY": 0.0005992, "INCLINATION": 0.7908, "RA_OF_ASC_NODE": 86.0514, "ARG_OF_PERICENTER": 170.1785, "MEAN_ANOMALY": 268.9265, "EPHEMERIS_TYPE": 0, "CLASSIFICATION_TYPE": "U", "NORAD_CAT_ID": 36411, "ELEMENT_SET_NO": 999, "REV_AT_EPOCH": 5768, "BSTAR": 0, "MEAN_MOTION_DOT": 5.4e-07, "MEAN_MOTION_DDOT": 0}, "tle": {"line1": "1 36411U 10008A   25338.08472288  .00000054  00000+0  00000+0 0  9991", "line2": "2 36411   0.7908  86.0514 0005992 170.1785 268.9265  1.00267832 57682"}}, "geometry": {"type": "Point", "coordinates": [-78.11648852052373, -0.23439930885913451]}}, {"type": "Feature", "properties": {"norad_id": 36744, "name": "COMS 1", "group": "weather", "lat": -4.311908765193558, "lon": -11.447492667244722, "alt_km": 35786.92916218199, "timestamp": "2025-12-04T09:47:37.165828+00:00", "meta": {"OBJECT_NAME": "COMS 1", "OBJECT_ID": "2010-032A", "EPOCH": "2025-12-03T17:35:32.728416", "MEAN_MOTION": 1.00269913, "ECCENTRICITY": 0.0001111, "INCLINATION": 4.318, "RA_OF_ASC_NODE": 78.097, "ARG_OF_PERICENTER": 184.7227, "MEAN_ANOMALY": 202.0533, "EPHEMERIS_TYPE": 0, "CLASSIFICATION_TYPE": "U", "NORAD_CAT_ID": 36744, "ELEMENT_SET_NO": 999, "REV_AT_EPOCH": 4913, "BSTAR": 0, "MEAN_MOTION_DOT": -3.29e-06, "MEAN_MOTION_DDOT": 0}, "tle": {"line1": "1 36744U 10032A   25337.73301769 -.00000329  00000+0  00000+0 0  9999", "line2": "2 36744   4.3180  78.0970 0001111 184.7227 202.0533  1.00269913 49131"}}, "geometry": {"type": "Point", "coordinates": [-11.447492667244722, -4.311908765193558]}}, {"type": "Feature", "properties": {"norad_id": 37214, "name": "FENGYUN 3B", "group": "weather", "lat": 73.83945901552042, "lon": -128.55104350253293, "alt_km": 833.7139823129337, "timestamp": "2025-12-04T09:47:37.165840+00:00", "meta": {"OBJECT_NAME": "FENGYUN 3B", "OBJECT_ID": "2010-059A", "EPOCH": "2025-12-03T23:40:28.257024", "MEAN_MOTION": 14.14786033, "ECCENTRICITY": 0.00224241, "INCLINATION": 98.9921, "RA_OF_ASC_NODE": 17.9022, "ARG_OF_PERICENTER": 22.432, "MEAN_ANOMALY": 94.4995, "EPHEMERIS_TYPE": 0, "CLASSIFICATION_TYPE": "U", "NORAD_CAT_ID": 37214, "ELEMENT_SET_NO": 999, "REV_AT_EPOCH": 77982, "BSTAR": 0.00013251455, "MEAN_MOTION_DOT": 2.11e-06, "MEAN_MOTION_DDOT": 0}, "tle": {"line1": "1 37214U 10059A   25337.98643816  .00000211  00000+0  13251-3 0  9995", "line2": "2 37214  98.9921  17.9022 0022424  22.4320  94.4995 14.14786033779825"}}, "geometry": {"type": "Point", "coordinates": [-128.55104350253293, 73.83945901552042]}}, {"type": "Feature", "properties": {"norad_id": 37849, "name": "SUOMI NPP", "group": "weather", "lat": 17.04194200223176, "lon": 98.53930255496675, "alt_km": 826.2365266811685, "timestamp": "2025-12-04T09:47:37.165852+00:00", "meta": {"OBJECT_NAME": "SUOMI NPP", "OBJECT_ID": "2011-061A", "EPOCH": "2025-12-04T03:57:18.153216", "MEAN_MOTION": 14.19510497, "ECCENTRICITY": 0.0001925, "INCLINATION": 98.776, "RA_OF_ASC_NODE": 275.5842, "ARG_OF_PERICENTER": 135.6897, "MEAN_ANOMALY": 224.4433, "EPHEMERIS_TYPE": 0, "CLASSIFICATION_TYPE": "U", "NORAD_CAT_ID": 37849, "ELEMENT_SET_NO": 999, "REV_AT_EPOCH": 73077, "BSTAR": 0.00012225, "MEAN_MOTION_DOT": 2.13e-06, "MEAN_MOTION_DDOT": 0}, "tle": {"line1": "1 37849U 11061A   25338.16479344  .00000213  00000+0  12225-3 0  9999", "line2": "2 37849  98.7760 275.5842 0001925 135.6897 224.4433 14.19510497730776"}}, "geometry": {"type": "Point", "coordinates": [98.53930255496675, 17.04194200223176]}}]}